JINJUSAT-1B             
1 63210U 25052A   26068.66363707  .00019955  00000+0  68430-3 0  9998
2 63210  97.4113 325.4613 0005550  82.1930 277.9941 15.30194857 54866
STARLINK-34236          
1 64743U 25144V   26068.57151855  .00020612  00000+0  70619-3 0  9995
2 64743  53.1600 181.5955 0001155  78.1403 281.9727 15.30196896 39691
